SENTINEL-6              
1 46984U 20086A   23279.62602978 -.00000046  00000+0  66031-4 0  9990
2 46984  66.0445  19.9947 0007868 268.0074  92.0040 12.80929965134355
